GLOBALSTAR M001         
1 25162U 98008A   25311.07824808 -.00000062  00000+0  26845-3 0  9996
2 25162  52.0035 277.3245 0001023 182.3834 255.8063 12.38220128261410
GLOBALSTAR M004         
1 25163U 98008B   25311.02009859 -.00000068  00000+0  19743-3 0  9998
2 25163  52.0021 338.4001 0002921 245.1006 125.7249 12.63407329279746
GLOBALSTAR M002         
1 25164U 98008C   25311.10640056 -.00000046  00000+0  59595-3 0  9993
2 25164  52.0008 241.8573 0002186  47.5395 312.5609 11.61513029200675
GLOBALSTAR M003         
1 25165U 98008D   25310.53142593 -.00000198  00000+0 -11568-2 0  9999
2 25165  51.9896 134.2766 0007372 213.5776 178.2874 12.12050334250485
GLOBALSTAR M014         
1 25306U 98023A   25310.56795931 -.00000039  00000+0  71453-3 0  9999
2 25306  51.9807 163.4376 0000155  73.7554 307.5449 11.65483478207772
GLOBALSTAR M006         
1 25307U 98023B   25311.06011647 -.00000048  00000+0  56277-3 0  9998
2 25307  51.9925 220.0059 0003767  17.2238  84.2791 11.58177958233386
GLOBALSTAR M015         
1 25308U 98023C   25311.17714469 -.00000067  00000+0  15578-3 0  9993
2 25308  51.9839 324.7411 0012449 330.7196 104.9805 11.48859256210511
GLOBALSTAR M008         
1 25309U 98023D   25310.54552578 -.00000069  00000+0  21139-3 0  9997
2 25309  51.9937 145.3183 0003657 107.8659 279.5905 12.36075628255455
